{
"type": "FeatureCollection",
"name": "LagoAtitlan",
"crs": { "type": "name", "properties": { "name": "urn:ogc:def:crs:OGC:1.3:CRS84" } },
"features": [
{ "type": "Feature", "properties": { "gid": 727, "tipo": 0, "clase": "Lagos y Lagunas", "area_ha": 12693.6535, "perimetro_": 82.790681 }, "geometry": { "type": "MultiPolygon", "coordinates": [ [ [ [ -91.286157464167459, 14.698326793312754 ], [ -91.286737138656449, 14.698930969385152 ], [ -91.286938520265778, 14.699376445850085 ], [ -91.287205074028719, 14.700320620155411 ], [ -91.287324103863156, 14.701131524894917 ], [ -91.28729310690872, 14.702129988594752 ], [ -91.287250132164445, 14.703250375911326 ], [ -91.287154100669653, 14.703881192609661 ], [ -91.286896228812992, 14.704800027444815 ], [ -91.286790543883811, 14.705254532628235 ], [ -91.286615026139614, 14.705807938903666 ], [ -91.286406485397407, 14.706205196447515 ], [ -91.286245488248312, 14.706459327984572 ], [ -91.286049936512072, 14.706679311636119 ], [ -91.285797549095776, 14.706894355833496 ], [ -91.28516752229109, 14.707311089549464 ], [ -91.284251950262245, 14.707803660025826 ], [ -91.28358837719108, 14.708130891059545 ], [ -91.283381382858778, 14.708329322214498 ], [ -91.283299795506124, 14.708595336645017 ], [ -91.283217636438195, 14.708860217046679 ], [ -91.283168114482407, 14.709404384918916 ], [ -91.283093391820344, 14.710202557522148 ], [ -91.282997687802194, 14.710789313219216 ], [ -91.282903016829067, 14.711243896911766 ], [ -91.28278652852363, 14.711519819992359 ], [ -91.282589749027096, 14.711895694777557 ], [ -91.282394680452782, 14.712126975364724 ], [ -91.282129766017903, 14.712458284763605 ], [ -91.281761965041085, 14.712810295940733 ], [ -91.280308375415615, 14.713598238038387 ], [ -91.278866905277383, 14.714319605428139 ], [ -91.27831797569506, 14.714603610215587 ], [ -91.277895464405645, 14.714678422158915 ], [ -91.277564676398313, 14.714675963357623 ], [ -91.276518694481837, 14.714401567585792 ], [ -91.275562368192894, 14.714239678426569 ], [ -91.274787630459755, 14.714233911282822 ], [ -91.274502165608041, 14.714298439998004 ], [ -91.274147182701668, 14.714494629525223 ], [ -91.273163604619668, 14.714919989441572 ], [ -91.271539794152417, 14.715651246077449 ], [ -91.269961587076438, 14.716338771158801 ], [ -91.268507680242919, 14.717159392100474 ], [ -91.267876800699426, 14.717676611820647 ], [ -91.267394439066976, 14.718127156514653 ], [ -91.267233357046678, 14.718314616721477 ], [ -91.26715195928908, 14.718480078269909 ], [ -91.267139880218039, 14.718613296146698 ], [ -91.267138122762574, 14.718835839966397 ], [ -91.267136374198813, 14.719057254117569 ], [ -91.26716249925434, 14.719203184825654 ], [ -91.267173527052066, 14.719423564821723 ], [ -91.267202681863793, 14.720067729446548 ], [ -91.267177103942956, 14.720366916724785 ], [ -91.267105384789645, 14.720776472369371 ], [ -91.266989094495457, 14.721097575470219 ], [ -91.266792278992966, 14.721473432660479 ], [ -91.266307709982271, 14.722201870956152 ], [ -91.265801995425832, 14.722741484655339 ], [ -91.265365813611965, 14.723148309743832 ], [ -91.264838157897003, 14.723599637607464 ], [ -91.264161501209486, 14.724104074132445 ], [ -91.263841074483437, 14.724257574496322 ], [ -91.26347582713106, 14.724354251834004 ], [ -91.26305373306171, 14.72437368064246 ], [ -91.262780826187992, 14.724316276724045 ], [ -91.262610678586029, 14.724181692285489 ], [ -91.262408544321218, 14.723835608617234 ], [ -91.262095232414893, 14.723091026324159 ], [ -91.261485601162732, 14.720923022246316 ], [ -91.261250636662595, 14.720399324310108 ], [ -91.261149411643629, 14.72020989989768 ], [ -91.26096832222062, 14.720065064943249 ], [ -91.260831801005679, 14.720008683253456 ], [ -91.260660869745905, 14.719973507914814 ], [ -91.260421859830103, 14.719960415714004 ], [ -91.260273694380771, 14.719981897432101 ], [ -91.260091118736526, 14.720024585384717 ], [ -91.259964798056828, 14.720145646958763 ], [ -91.259837679826134, 14.720367248144143 ], [ -91.259710749491347, 14.720565126379896 ], [ -91.259433038147677, 14.721040913909595 ], [ -91.259133810357611, 14.721448755653261 ], [ -91.258949066182453, 14.72169138779816 ], [ -91.258730751344302, 14.721922470086671 ], [ -91.258409795926426, 14.722142612742713 ], [ -91.257561980753024, 14.722712395539654 ], [ -91.256817932943662, 14.72315077805975 ], [ -91.256393902487432, 14.723414200860226 ], [ -91.256096785286914, 14.72355543858591 ], [ -91.255787911619905, 14.723642360567061 ], [ -91.255469085645316, 14.723667072301673 ], [ -91.254775331350558, 14.723473180988012 ], [ -91.254297426991187, 14.723358865903807 ], [ -91.253900141398773, 14.723178504083378 ], [ -91.253276544241601, 14.722775009030192 ], [ -91.252914513013152, 14.722394950634559 ], [ -91.252665307678853, 14.722204406792311 ], [ -91.252472355339435, 14.72209223806902 ], [ -91.2522115122798, 14.721978427135342 ], [ -91.251927005812632, 14.721920923451407 ], [ -91.25163036154467, 14.721929981421424 ], [ -91.25140193640199, 14.721972316035121 ], [ -91.251265106028796, 14.722027768996989 ], [ -91.251104629668703, 14.722137269966062 ], [ -91.250966786476653, 14.722246941739453 ], [ -91.250772691176977, 14.722278237731377 ], [ -91.250521983619223, 14.722276343969018 ], [ -91.250237035952495, 14.722274191238656 ], [ -91.249963695158897, 14.722272125866814 ], [ -91.249701380891736, 14.72227014350846 ], [ -91.249576027185071, 14.722269196081978 ], [ -91.249359559925637, 14.722267559857224 ], [ -91.248858226407535, 14.722253602131273 ], [ -91.24823101628138, 14.722304215008107 ], [ -91.247842816271216, 14.7223679317893 ], [ -91.247248519208185, 14.722584859796207 ], [ -91.246768410498873, 14.722747294396283 ], [ -91.246060536208589, 14.722941894569047 ], [ -91.245534716683792, 14.72315933645279 ], [ -91.244070853596781, 14.723758289191085 ], [ -91.243624175861456, 14.724021515139343 ], [ -91.243497935036174, 14.724131269940939 ], [ -91.243405264947668, 14.724324878443428 ], [ -91.243198544919565, 14.725932028082847 ], [ -91.243100416623008, 14.726806814538378 ], [ -91.243110059791348, 14.727052036393564 ], [ -91.243274294292831, 14.72785086314887 ], [ -91.243396184889917, 14.728284469829275 ], [ -91.243428109213269, 14.728573919730476 ], [ -91.243414375437894, 14.728839299114284 ], [ -91.243310006290159, 14.729116417603556 ], [ -91.243182965593391, 14.729325580919111 ], [ -91.242780918136489, 14.729667093030287 ], [ -91.242391690892106, 14.729929621474366 ], [ -91.241910756848853, 14.730192582371144 ], [ -91.241280760566355, 14.730587716122413 ], [ -91.240708362752997, 14.730892908443364 ], [ -91.239725012737978, 14.731274054294206 ], [ -91.239326122670363, 14.731293614656844 ], [ -91.238927278381325, 14.731235224350046 ], [ -91.238450848597353, 14.73100904516439 ], [ -91.238064856200808, 14.730795980382585 ], [ -91.237531681158345, 14.730481249834119 ], [ -91.237157216128935, 14.730278438911599 ], [ -91.23673627671235, 14.730153223687884 ], [ -91.236144712733704, 14.730026707653199 ], [ -91.235599179623975, 14.729877946775146 ], [ -91.235269267224055, 14.72976471998607 ], [ -91.234996901410355, 14.729640634418008 ], [ -91.233468470983453, 14.72837612473241 ], [ -91.232981295796648, 14.727972488678006 ], [ -91.232777141970629, 14.727882812822923 ], [ -91.232560762182771, 14.727869863863784 ], [ -91.232332238169178, 14.727923474962918 ], [ -91.232206345102668, 14.72798916665618 ], [ -91.232056925720229, 14.728165390330417 ], [ -91.231906297242801, 14.728419554727967 ], [ -91.231618037419736, 14.72882743810016 ], [ -91.231076283950699, 14.729577945844362 ], [ -91.230708694509133, 14.729962627276718 ], [ -91.230238015916171, 14.730391708227609 ], [ -91.229837249668449, 14.730643958215856 ], [ -91.22949349793862, 14.730807396451892 ], [ -91.228991165717929, 14.730915394762929 ], [ -91.228477724174098, 14.731033474287324 ], [ -91.227255665942394, 14.731289599439195 ], [ -91.226377442758704, 14.731372118400383 ], [ -91.225955563549448, 14.731435537988588 ], [ -91.225566896929848, 14.731554567079932 ], [ -91.225211840080036, 14.731751803009972 ], [ -91.225005720423027, 14.731904992285655 ], [ -91.224615341816616, 14.732235261730432 ], [ -91.223430264252002, 14.733656376418978 ], [ -91.222568555875867, 14.734492520319959 ], [ -91.221949095522632, 14.73494303284202 ], [ -91.220814738492422, 14.735688956821758 ], [ -91.220265112613745, 14.735972804762584 ], [ -91.219887501697698, 14.736158560683746 ], [ -91.219545123134338, 14.736222578991446 ], [ -91.218758815535651, 14.73620523023412 ], [ -91.218166525843515, 14.736167908592076 ], [ -91.217426702153446, 14.736072963783108 ], [ -91.216731872264788, 14.736012254506539 ], [ -91.215477736754053, 14.736069238213062 ], [ -91.214349411620816, 14.736071830609083 ], [ -91.213505558710153, 14.736065316992031 ], [ -91.213186357235926, 14.736062852305398 ], [ -91.212901434307611, 14.736127304252477 ], [ -91.212683382330979, 14.736247627689886 ], [ -91.212385589371436, 14.736466748466144 ], [ -91.211765386231932, 14.737005341691438 ], [ -91.211501012591697, 14.737325262663456 ], [ -91.211338423647192, 14.73769002842814 ], [ -91.21116377481485, 14.738110056034682 ], [ -91.211092847121918, 14.738408877934139 ], [ -91.210861448965829, 14.738883821615875 ], [ -91.210630548706078, 14.739226594017584 ], [ -91.210194240230535, 14.739633299533402 ], [ -91.209747411812302, 14.739906618218013 ], [ -91.209461358183972, 14.740037708720372 ], [ -91.209198123570943, 14.740146381519589 ], [ -91.208856005202804, 14.74017762376266 ], [ -91.208468314225968, 14.740174621625707 ], [ -91.208047783848727, 14.740070821382469 ], [ -91.207240737504137, 14.73982055383512 ], [ -91.206318989837854, 14.739614582214159 ], [ -91.205817824736329, 14.739576804997762 ], [ -91.20549861949533, 14.739574329133214 ], [ -91.205041900282453, 14.73963743795559 ], [ -91.2044598544976, 14.739766225186928 ], [ -91.203819897440212, 14.73994991630188 ], [ -91.203191732263889, 14.740111103222484 ], [ -91.202780499932302, 14.740218618779062 ], [ -91.202106146612238, 14.740491283463317 ], [ -91.201350210816784, 14.740874021653831 ], [ -91.200927225792967, 14.741069558369741 ], [ -91.200698767083921, 14.741112969150853 ], [ -91.200083392666755, 14.741129645792084 ], [ -91.199627393968356, 14.741104632961552 ], [ -91.199320797854639, 14.740980239663294 ], [ -91.199082779172812, 14.740845082980748 ], [ -91.198924179176245, 14.740721841375869 ], [ -91.198629892931208, 14.74044164555645 ], [ -91.197273938591124, 14.739044950873783 ], [ -91.196820873510049, 14.738664103026183 ], [ -91.196571344649229, 14.738517557533848 ], [ -91.19611599425815, 14.738414594745549 ], [ -91.195637678866163, 14.738422161707536 ], [ -91.195397810588929, 14.738441754943853 ], [ -91.19502081166894, 14.738550653343207 ], [ -91.194540370738366, 14.738745730000502 ], [ -91.194311488972389, 14.738911137827008 ], [ -91.194104120857375, 14.739142235346295 ], [ -91.193966179334524, 14.739329816734003 ], [ -91.193534928121835, 14.740457268951536 ], [ -91.193127976942918, 14.741452735973979 ], [ -91.193000053752257, 14.741762401197459 ], [ -91.192815772604561, 14.741938322674194 ], [ -91.192587445326183, 14.742035951258476 ], [ -91.192301744570159, 14.742122964009425 ], [ -91.191982538002478, 14.742120469080348 ], [ -91.191685966136248, 14.742118150670148 ], [ -91.19143524397272, 14.742116190387193 ], [ -91.19111603756825, 14.742113694263814 ], [ -91.190569968005093, 14.742031474640605 ], [ -91.190216790408002, 14.741995950595348 ], [ -91.189863342298324, 14.741993184840611 ], [ -91.189509830450149, 14.742068366466283 ], [ -91.189166130187132, 14.742220443057372 ], [ -91.188708060763389, 14.742516223392252 ], [ -91.188285212229843, 14.742623620923844 ], [ -91.187681163697945, 14.742674243269114 ], [ -91.187202353892076, 14.742670491011681 ], [ -91.186758057531904, 14.742634247452418 ], [ -91.186518914349364, 14.742565721100608 ], [ -91.186281268308406, 14.74238649708397 ], [ -91.186145216609177, 14.742274721025947 ], [ -91.185885395024073, 14.742039968185617 ], [ -91.185477560011122, 14.741736272929103 ], [ -91.184910666859153, 14.741365807276114 ], [ -91.184252563992715, 14.741005921325415 ], [ -91.183616357955074, 14.740735450704717 ], [ -91.182923015242693, 14.740496160830178 ], [ -91.182286287150774, 14.740358985411422 ], [ -91.181523451620095, 14.740241151312421 ], [ -91.181033407193851, 14.740193240896991 ], [ -91.180213621081819, 14.7401540325505 ], [ -91.179381375701567, 14.740147484041794 ], [ -91.178970690650615, 14.740188309053787 ], [ -91.178731016367024, 14.740254203084449 ], [ -91.178422118701548, 14.740338756342812 ], [ -91.177656259131467, 14.740654683345332 ], [ -91.176178133483987, 14.74154112957204 ], [ -91.175581785675476, 14.741991687598794 ], [ -91.175077024252147, 14.742386482480011 ], [ -91.1722393605679, 14.745104673814001 ], [ -91.171075666997552, 14.746559534636988 ], [ -91.169949933746139, 14.747637376452822 ], [ -91.169559367348413, 14.747977706327886 ], [ -91.169284892179576, 14.74810883497774 ], [ -91.16888588499846, 14.748139565617921 ], [ -91.168532620150017, 14.748114174133104 ], [ -91.16825923654315, 14.748045357645047 ], [ -91.16793011359232, 14.747909448382558 ], [ -91.167567211720026, 14.747717916934626 ], [ -91.167090523723203, 14.747459961903036 ], [ -91.166670165727453, 14.747267973738987 ], [ -91.16611360837382, 14.747052311241269 ], [ -91.165738354690561, 14.746949923491592 ], [ -91.165203222621045, 14.746879027136268 ], [ -91.164834246941723, 14.746720204145475 ], [ -91.164470769837109, 14.746528663748739 ], [ -91.164233320597347, 14.746327956338037 ], [ -91.164063785388294, 14.746126658265304 ], [ -91.163986508714871, 14.745859441923871 ], [ -91.163967681032062, 14.745405163943158 ], [ -91.164058082474327, 14.742721778482389 ], [ -91.164017841128171, 14.742121602590878 ], [ -91.163939880820806, 14.741866807287071 ], [ -91.163784023064167, 14.741488259226928 ], [ -91.163593533340972, 14.741086842704814 ], [ -91.163393103664717, 14.740486524720621 ], [ -91.163204007477532, 14.739919057157822 ], [ -91.163081434045623, 14.739585960042227 ], [ -91.162935024106943, 14.739396142061176 ], [ -91.162675032147675, 14.739116177815964 ], [ -91.160988822493593, 14.737682782195607 ], [ -91.159459897516371, 14.736528526773311 ], [ -91.159098606976031, 14.736148342430113 ], [ -91.158692865316851, 14.735601742314286 ], [ -91.158574413325795, 14.735400847970846 ], [ -91.158501734342266, 14.735278265142902 ], [ -91.158300317712701, 14.734866591691437 ], [ -91.158063615954106, 14.734509991134473 ], [ -91.157803931445443, 14.734263915155555 ], [ -91.157316152738289, 14.733949372263243 ], [ -91.156919043654071, 14.733757554978487 ], [ -91.156407798104411, 14.733542234457111 ], [ -91.155976355574197, 14.733361438892848 ], [ -91.155486994407497, 14.733235534773742 ], [ -91.155077340493179, 14.733155451875268 ], [ -91.15462177381616, 14.733151819659769 ], [ -91.151509928177447, 14.733203802414115 ], [ -91.15031391828596, 14.733117428969173 ], [ -91.149459929183791, 14.733010061572472 ], [ -91.14886880692562, 14.732839273246956 ], [ -91.148437096953259, 14.732691222573662 ], [ -91.148062251022083, 14.732544755854006 ], [ -91.147438963271185, 14.732128569458276 ], [ -91.14679339094134, 14.73160262573079 ], [ -91.14656625603358, 14.731490099829919 ], [ -91.146225290301587, 14.731386829022583 ], [ -91.145714261562176, 14.731216674832108 ], [ -91.145156338957591, 14.731101497320571 ], [ -91.144633800966204, 14.730919952032439 ], [ -91.144271514414598, 14.730661743765037 ], [ -91.143808289391089, 14.730192608263277 ], [ -91.143457786940616, 14.729845250076252 ], [ -91.143119820086056, 14.72938841474863 ], [ -91.142781283827759, 14.728930444832868 ], [ -91.142343068064079, 14.728250260862147 ], [ -91.141611109972146, 14.727168947818431 ], [ -91.141035199140049, 14.726575770365375 ], [ -91.140831643639544, 14.72635272215612 ], [ -91.140742324701421, 14.72614075816605 ], [ -91.140616929259437, 14.724776249568093 ], [ -91.140621353445766, 14.724254381387166 ], [ -91.140565794862056, 14.724099171587467 ], [ -91.140172111349443, 14.723507456231415 ], [ -91.140003927755856, 14.723151391680132 ], [ -91.13948734407343, 14.722270624691228 ], [ -91.139386699413947, 14.722025809267684 ], [ -91.139262196664916, 14.721925398759039 ], [ -91.139091778686151, 14.721901436202316 ], [ -91.138852112840496, 14.721899510240164 ], [ -91.138635093720879, 14.721964416042111 ], [ -91.138498156569341, 14.722029965350142 ], [ -91.138348467350724, 14.722162062034307 ], [ -91.138142018538076, 14.722349055635823 ], [ -91.137946882848098, 14.722502250167048 ], [ -91.137717691027632, 14.722633707086501 ], [ -91.137512555212979, 14.72266594713509 ], [ -91.137159148743422, 14.722663104517039 ], [ -91.136862708281356, 14.722649423090536 ], [ -91.13645319010368, 14.722556884839706 ], [ -91.136101112977528, 14.722465937893791 ], [ -91.135726304003072, 14.722318324488754 ], [ -91.135431371726142, 14.722127296966821 ], [ -91.135160122652692, 14.721881106548221 ], [ -91.134991574050034, 14.721569093084002 ], [ -91.134858396903681, 14.721124064674466 ], [ -91.134678631413891, 14.720834553915305 ], [ -91.134373896268414, 14.720499979753583 ], [ -91.133447263967142, 14.719593305869829 ], [ -91.132635309452283, 14.71857797678642 ], [ -91.132444135202462, 14.718265779655903 ], [ -91.132333041765975, 14.717954228104963 ], [ -91.132256451562867, 14.717543544857906 ], [ -91.132226281312029, 14.717065456425447 ], [ -91.132230521131603, 14.716567311581763 ], [ -91.132154703854724, 14.716134041409028 ], [ -91.132100200804828, 14.715855706181387 ], [ -91.131921564206522, 14.715366253737418 ], [ -91.131710310294068, 14.714754535188964 ], [ -91.131578665085669, 14.714198811753485 ], [ -91.13143624803682, 14.713476941771191 ], [ -91.131272165727324, 14.712709710740794 ], [ -91.131060444109863, 14.712153341393131 ], [ -91.130870786696605, 14.711663799697559 ], [ -91.130816372278971, 14.711375298170195 ], [ -91.130733675157671, 14.710387310608191 ], [ -91.130638516919049, 14.70949976202337 ], [ -91.130561180785762, 14.709177185877444 ], [ -91.130493940202314, 14.709032047361891 ], [ -91.130178489789017, 14.708663493714168 ], [ -91.129941764151752, 14.708318168069884 ], [ -91.129818879993266, 14.70802911402536 ], [ -91.129764380711919, 14.707750778648846 ], [ -91.129780045785665, 14.707274189753942 ], [ -91.129885567764305, 14.706876272141562 ], [ -91.130108068030964, 14.706234162427316 ], [ -91.130410991649313, 14.705415344697242 ], [ -91.13055217273272, 14.704918304192249 ], [ -91.130554249466869, 14.704674314861874 ], [ -91.130453342069245, 14.704462255146707 ], [ -91.130351204098218, 14.704394781665961 ], [ -91.130147220121557, 14.70429372667105 ], [ -91.129977275816728, 14.704147759785055 ], [ -91.129876757092688, 14.703958296181707 ], [ -91.129855431942602, 14.70373671130333 ], [ -91.129848186709026, 14.703292697471969 ], [ -91.129850071646189, 14.703071299804737 ], [ -91.12972616062892, 14.702903110995772 ], [ -91.129590067690174, 14.702802603311618 ], [ -91.129408340176695, 14.702745784030055 ], [ -91.129089577405324, 14.70269915547062 ], [ -91.128816375572313, 14.702685654234104 ], [ -91.128451773337787, 14.702638654876978 ], [ -91.128042489377592, 14.702523514831432 ], [ -91.127815673817551, 14.702378217141522 ], [ -91.127748641461281, 14.702277136460898 ], [ -91.127579634274653, 14.702021599042032 ], [ -91.127457429857856, 14.701653473880617 ], [ -91.127404725079089, 14.701165036735111 ], [ -91.127337950657463, 14.70096567797445 ], [ -91.12723628712294, 14.700842854060832 ], [ -91.127032885807012, 14.700674022151336 ], [ -91.126590498965527, 14.700426442892233 ], [ -91.125966485341621, 14.700110745492305 ], [ -91.125320123737211, 14.699762105938824 ], [ -91.124490988579524, 14.699411986715534 ], [ -91.123753071188347, 14.699116826218878 ], [ -91.122751439487374, 14.698921197928822 ], [ -91.121922332848854, 14.698636590413839 ], [ -91.121207138555675, 14.698331439583438 ], [ -91.120424618789798, 14.69789244213638 ], [ -91.119925953413002, 14.697577745948804 ], [ -91.119416351873753, 14.697185014169145 ], [ -91.11913335245292, 14.696961307613931 ], [ -91.118986717832783, 14.69680535616145 ], [ -91.118818121492808, 14.696503501432213 ], [ -91.118695537806715, 14.696181686093521 ], [ -91.118562597271861, 14.695714061638988 ], [ -91.118416437680409, 14.695502760866841 ], [ -91.118292152888998, 14.695379750308433 ], [ -91.118076675816269, 14.695267296393094 ], [ -91.117758595537765, 14.69514271326044 ], [ -91.117395451505885, 14.694995170984029 ], [ -91.117146129074797, 14.694837255569576 ], [ -91.116998820254551, 14.694692594182758 ], [ -91.116898413517887, 14.694491830916201 ], [ -91.11686788678081, 14.694058926803839 ], [ -91.116927301164608, 14.692406729606528 ], [ -91.117025516617872, 14.691576103453365 ], [ -91.117154364957486, 14.691165956013693 ], [ -91.117328749874318, 14.690791197116498 ], [ -91.117422223068985, 14.69051406124883 ], [ -91.117493531882999, 14.69018252221575 ], [ -91.117699381899044, 14.688775516350095 ], [ -91.117820228911825, 14.687943943034586 ], [ -91.11792738252197, 14.687424042446015 ], [ -91.118068583929926, 14.686925881212387 ], [ -91.118185532528301, 14.686549525615662 ], [ -91.118255987665577, 14.686317388467939 ], [ -91.118247988607422, 14.685895963260323 ], [ -91.118138830833175, 14.685361882304091 ], [ -91.1180410645037, 14.684784966901702 ], [ -91.118046670107546, 14.684129813928879 ], [ -91.118097907998575, 14.683498753565324 ], [ -91.118215520737806, 14.683044456996951 ], [ -91.118413856651372, 14.682513998192453 ], [ -91.118587370479929, 14.682171989977423 ], [ -91.118716304897148, 14.681750544607066 ], [ -91.118788466951273, 14.681318472205874 ], [ -91.118791876475228, 14.680919732265318 ], [ -91.118334020615009, 14.67984059233839 ], [ -91.118133871301239, 14.679294477514105 ], [ -91.11803487874414, 14.678861018124849 ], [ -91.117972860978668, 14.678107036965931 ], [ -91.117913036258571, 14.677096642335529 ], [ -91.117859308711004, 14.676730199320801 ], [ -91.117770210833612, 14.676496768690573 ], [ -91.117556838318407, 14.67614032823869 ], [ -91.117319979201028, 14.675816457197145 ], [ -91.117015810459193, 14.675425390768044 ], [ -91.116733216033893, 14.675157631110332 ], [ -91.116428478873686, 14.674833208988286 ], [ -91.116123549245572, 14.674531378040573 ], [ -91.11597711360703, 14.674286185399263 ], [ -91.115911989129955, 14.673963706277407 ], [ -91.115903614990941, 14.67358633452786 ], [ -91.115930698563801, 14.67306578454078 ], [ -91.115978339674996, 14.672854925979257 ], [ -91.116048027167949, 14.672712025338985 ], [ -91.116277260239229, 14.672502639374038 ], [ -91.116644465813067, 14.672239018810894 ], [ -91.116931501404054, 14.671987173887242 ], [ -91.11708172366825, 14.671721793460007 ], [ -91.117186972872815, 14.671423288456189 ], [ -91.117247335484848, 14.671013713582322 ], [ -91.117228408760496, 14.670580903027405 ], [ -91.117184382312274, 14.670369301080154 ], [ -91.116983092076708, 14.669957605609142 ], [ -91.116758789377101, 14.669523130442569 ], [ -91.11652403454373, 14.669021920890408 ], [ -91.116401570936404, 14.668687680516133 ], [ -91.116312370178434, 14.668398895889409 ], [ -91.116293725093527, 14.667933327749289 ], [ -91.116243797899841, 14.667122961861814 ], [ -91.116123509482335, 14.666534567185934 ], [ -91.116025190296853, 14.666023166996721 ], [ -91.115985156385946, 14.665412829864632 ], [ -91.116034958669516, 14.664881167047593 ], [ -91.116328639771723, 14.663851044534928 ], [ -91.116578756584389, 14.66262287889931 ], [ -91.116743122704904, 14.661991604662507 ], [ -91.11690655199817, 14.661537678232024 ], [ -91.117080347574245, 14.661228431266307 ], [ -91.117287404445065, 14.660964639659863 ], [ -91.117529182109237, 14.660711295865541 ], [ -91.117735301884167, 14.660557072619619 ], [ -91.117895119062709, 14.660525606621164 ], [ -91.118225796486186, 14.660528283639378 ], [ -91.119136524869617, 14.660613600267645 ], [ -91.120355016113052, 14.660667512427372 ], [ -91.120969393038294, 14.660739129028759 ], [ -91.121344089239741, 14.660886753466025 ], [ -91.121616315697153, 14.661076476315079 ], [ -91.121843453121045, 14.66117885103465 ], [ -91.122081805985957, 14.661258723024899 ], [ -91.122434927835542, 14.661283038973965 ], [ -91.123209038686923, 14.661333346898816 ], [ -91.12545217819445, 14.661518636215121 ], [ -91.126055428772091, 14.66153479677639 ], [ -91.126397904213533, 14.661514964256039 ], [ -91.126683512350439, 14.661428023039583 ], [ -91.12678618383012, 14.661362200529435 ], [ -91.12686708840782, 14.661263442444765 ], [ -91.126947796897184, 14.661119496362016 ], [ -91.127007099356049, 14.660831910997913 ], [ -91.127009451980967, 14.660555163351111 ], [ -91.126989371215302, 14.66025564176053 ], [ -91.126935628894543, 14.659889199038416 ], [ -91.126836440028811, 14.65947720375806 ], [ -91.126613257981006, 14.658909446003261 ], [ -91.12652500036576, 14.658576614920754 ], [ -91.126528399980984, 14.658176742841468 ], [ -91.126554150090897, 14.657877590545063 ], [ -91.126601474531782, 14.657633965385674 ], [ -91.126682896115668, 14.65747420973708 ], [ -91.127476987406098, 14.656537340049303 ], [ -91.128327914565645, 14.655602053965991 ], [ -91.129234938766814, 14.654755328767957 ], [ -91.129935102893867, 14.654150942861735 ], [ -91.130405119863454, 14.653798878349523 ], [ -91.13087427337517, 14.653548475388368 ], [ -91.131617913320099, 14.653221200230149 ], [ -91.132178430510109, 14.652937638384879 ], [ -91.133037932305683, 14.652355984660481 ], [ -91.13365660746372, 14.651918121620186 ], [ -91.134186110703951, 14.6513225179988 ], [ -91.134416422236882, 14.6509809472977 ], [ -91.13453304665839, 14.650705114788504 ], [ -91.134606288154316, 14.650139740098002 ], [ -91.134608170752799, 14.649917211225125 ], [ -91.134574785023673, 14.64981753299757 ], [ -91.134213459050471, 14.649393270288327 ], [ -91.133085219370386, 14.648141588058641 ], [ -91.132859398287877, 14.647884471736088 ], [ -91.132770760280209, 14.64759569603514 ], [ -91.132749899216634, 14.64731876092875 ], [ -91.132729436553007, 14.64706329263417 ], [ -91.132733386386832, 14.646596773085129 ], [ -91.132792483940605, 14.646331776296668 ], [ -91.132919383200303, 14.646144140714872 ], [ -91.133297727830836, 14.645859111972733 ], [ -91.133710870986476, 14.64550658173026 ], [ -91.134342253522604, 14.644935515805958 ], [ -91.134653477318707, 14.644560702683606 ], [ -91.135035665767347, 14.643820446112967 ], [ -91.135164337683349, 14.643422705285392 ], [ -91.135237200458036, 14.642901383566116 ], [ -91.135241048338941, 14.642446159074181 ], [ -91.135111546101513, 14.641569630393168 ], [ -91.135040401758559, 14.640515082089038 ], [ -91.135048459673698, 14.639561708601429 ], [ -91.135150709407284, 14.638308598440588 ], [ -91.135390098670001, 14.636890525452783 ], [ -91.135496427588521, 14.636458714773218 ], [ -91.135612651539134, 14.636160283881059 ], [ -91.1358322070258, 14.635784733258472 ], [ -91.136108712277888, 14.635466121592138 ], [ -91.136499180129263, 14.635047881254533 ], [ -91.137106880165447, 14.634597488163379 ], [ -91.137529995040708, 14.634434811808216 ], [ -91.138043999868984, 14.634294325123211 ], [ -91.138625406026463, 14.63420972979292 ], [ -91.13910405241505, 14.634203388553182 ], [ -91.139433743021144, 14.634250080255192 ], [ -91.139672475803224, 14.634351398599405 ], [ -91.139807765182226, 14.634474483719552 ], [ -91.139829378477543, 14.634663311127497 ], [ -91.139724648924897, 14.634906482930356 ], [ -91.139540543876066, 14.635137723732845 ], [ -91.139264034021764, 14.635457469711621 ], [ -91.139160721514997, 14.635601241620765 ], [ -91.139055990688831, 14.635844412964765 ], [ -91.139075899412148, 14.636166527630952 ], [ -91.139130223312421, 14.636466324002678 ], [ -91.139265065054133, 14.636711410159453 ], [ -91.139964405741665, 14.63757102827606 ], [ -91.140710216571378, 14.638286418328555 ], [ -91.141038600655634, 14.638488992395803 ], [ -91.141311002450379, 14.638657228983808 ], [ -91.141617886832591, 14.638726329648323 ], [ -91.141937305278631, 14.638684822322524 ], [ -91.142371171778237, 14.63855498392854 ], [ -91.142999442447305, 14.638348748287967 ], [ -91.143455361037752, 14.63828686388635 ], [ -91.143934026883755, 14.638279384141994 ], [ -91.144161440197877, 14.638347847831618 ], [ -91.144342380943542, 14.638492758512911 ], [ -91.144387181951856, 14.638615120141955 ], [ -91.144385690674781, 14.638792466649209 ], [ -91.144361176341249, 14.638948165869053 ], [ -91.144279842437143, 14.639168933048222 ], [ -91.144094892053076, 14.639500711502496 ], [ -91.143841404931692, 14.639842110254973 ], [ -91.143599214323999, 14.640150838280602 ], [ -91.143460840063554, 14.64039374349408 ], [ -91.143321048910494, 14.640736048291785 ], [ -91.143215758435872, 14.641045867741862 ], [ -91.143134042130995, 14.641311818038396 ], [ -91.143063908313721, 14.641511210141948 ], [ -91.142971245738153, 14.641699125749327 ], [ -91.142775164465093, 14.641974330319512 ], [ -91.141084591904516, 14.643840602838509 ], [ -91.140877760418405, 14.644082959021958 ], [ -91.140807433038717, 14.644304941911312 ], [ -91.140793964940173, 14.644526249389482 ], [ -91.140792003613925, 14.644758945485576 ], [ -91.14083605125235, 14.644970545477323 ], [ -91.140925823023579, 14.645126027344199 ], [ -91.141061318357629, 14.645294300834689 ], [ -91.141208311837175, 14.645406182672309 ], [ -91.141344473867974, 14.645495384532238 ], [ -91.141525969812264, 14.645574781393925 ], [ -91.14175301817626, 14.645687302329444 ], [ -91.141922541234166, 14.645810660397844 ], [ -91.142024277794462, 14.645923310062228 ], [ -91.142056914930521, 14.646112225455594 ], [ -91.142063921340679, 14.646589001862072 ], [ -91.142006158676622, 14.648074055623786 ], [ -91.141907695355314, 14.648949892436358 ], [ -91.14192844469224, 14.649172602961237 ], [ -91.142029354541407, 14.649383527369366 ], [ -91.142142305114064, 14.649473673320511 ], [ -91.142323433377484, 14.649597124087554 ], [ -91.142481937347441, 14.649720394079011 ], [ -91.142526833944629, 14.649831460168091 ], [ -91.142523474870771, 14.650230206599623 ], [ -91.142520391665443, 14.650596194813012 ], [ -91.142528235467594, 14.65097356696454 ], [ -91.14257321791257, 14.651074466727096 ], [ -91.142719844661713, 14.651230402238211 ], [ -91.142912767319558, 14.651331353511081 ], [ -91.143152261719976, 14.65134456220895 ], [ -91.143357044096689, 14.651346196893996 ], [ -91.14366524961315, 14.651260542574713 ], [ -91.143996764329358, 14.651162647441154 ], [ -91.144441972755416, 14.651066788468311 ], [ -91.144772251000916, 14.651046829554002 ], [ -91.14486313971598, 14.651070147862793 ], [ -91.144918965001082, 14.651192597506446 ], [ -91.144929635983729, 14.651303390321301 ], [ -91.14491710213909, 14.651413998068596 ], [ -91.144731303593744, 14.651845179924072 ], [ -91.144579360722432, 14.652320688755642 ], [ -91.144508291700831, 14.652630781101498 ], [ -91.144483147351892, 14.652929943089132 ], [ -91.144481179234788, 14.653163769099979 ], [ -91.144501845499036, 14.653396646018754 ], [ -91.144579849221628, 14.653641277081496 ], [ -91.144703473790869, 14.653842214944168 ], [ -91.144850103813638, 14.65399814946942 ], [ -91.145042469098328, 14.654165745426443 ], [ -91.145302234497578, 14.654390362317114 ], [ -91.145755602612255, 14.654704637038472 ], [ -91.146254041767108, 14.655040734042432 ], [ -91.146470050594289, 14.655087642692672 ], [ -91.146617983993906, 14.65508882175873 ], [ -91.146789407570097, 14.655056297792873 ], [ -91.147132690504776, 14.654870378093722 ], [ -91.147464580176361, 14.654728424255417 ], [ -91.14788659010388, 14.654632374525008 ], [ -91.148217454158242, 14.654612415931163 ], [ -91.148433368333585, 14.654670618724237 ], [ -91.148592259053473, 14.654748701458072 ], [ -91.148806968664374, 14.654950362729846 ], [ -91.149044493534007, 14.655129611992818 ], [ -91.149282779144798, 14.655287403327428 ], [ -91.149498798683766, 14.655333179668158 ], [ -91.149829263960271, 14.655291751918742 ], [ -91.150035010146908, 14.65524820186713 ], [ -91.150309276376817, 14.655128378873105 ], [ -91.150595704172531, 14.654942001511483 ], [ -91.150778794334812, 14.654832749507715 ], [ -91.151006880864841, 14.654823266381017 ], [ -91.151166322356204, 14.654835830768819 ], [ -91.151245336174327, 14.65489181294679 ], [ -91.151324371196296, 14.655014446023037 ], [ -91.1513688730833, 14.655104044022133 ], [ -91.15149232495223, 14.655326441442726 ], [ -91.151594080188062, 14.655437958321102 ], [ -91.151798393749331, 14.655496065956209 ], [ -91.152048831618188, 14.655519520069854 ], [ -91.152608239173119, 14.655435850275612 ], [ -91.152938799227158, 14.655383122060089 ], [ -91.15313256394731, 14.655384661028585 ], [ -91.15331435690787, 14.655430162084023 ], [ -91.153370651680433, 14.655497259947349 ], [ -91.153380768527981, 14.655674699239716 ], [ -91.153378449822881, 14.655951451163583 ], [ -91.153317318511469, 14.656461578694566 ], [ -91.153313229616728, 14.656949565705066 ], [ -91.153355877489901, 14.657260564960055 ], [ -91.153434356033642, 14.657449843905852 ], [ -91.153558464190951, 14.657594298209473 ], [ -91.153807409656082, 14.657796227487797 ], [ -91.154054870026698, 14.658175503733691 ], [ -91.154098373534737, 14.658453749180531 ], [ -91.154094938702471, 14.658863793933673 ], [ -91.15408036455257, 14.659218396155863 ], [ -91.15406820335545, 14.659284950418265 ], [ -91.154033047443647, 14.659395379420193 ], [ -91.15394084800144, 14.659527948956047 ], [ -91.153826306703877, 14.659626450779696 ], [ -91.153426629875057, 14.65975657813755 ], [ -91.15338060904368, 14.659778806082569 ], [ -91.153277364708686, 14.659844636767019 ], [ -91.153184795377996, 14.66002126029022 ], [ -91.153183962196152, 14.660120665015459 ], [ -91.153182475708434, 14.660298012079826 ], [ -91.153203889523098, 14.66044278051238 ], [ -91.153226072864172, 14.660564961570794 ], [ -91.153326692424258, 14.660743119770409 ], [ -91.153485485270963, 14.660833625426129 ], [ -91.153804387070807, 14.660857622130406 ], [ -91.154738353868652, 14.660942985266196 ], [ -91.154976817202837, 14.661011528877451 ], [ -91.155044622148438, 14.661090014624186 ], [ -91.155089230608553, 14.661167186583414 ], [ -91.155100275528255, 14.661233925085639 ], [ -91.155099528269417, 14.66132316350595 ], [ -91.155098137786993, 14.661489214741836 ], [ -91.155084860486198, 14.661689061891718 ], [ -91.154981268679052, 14.661865598695766 ], [ -91.154866051680884, 14.661975392321297 ], [ -91.154591967523544, 14.662072627923935 ], [ -91.154158426498199, 14.662158429915157 ], [ -91.15339411330875, 14.662251770609691 ], [ -91.152744459137963, 14.66230196267338 ], [ -91.152242364665895, 14.662398512876717 ], [ -91.151979396832004, 14.662484536840173 ], [ -91.151727747558468, 14.662604540684034 ], [ -91.151360499833615, 14.662879519753398 ], [ -91.150798106692434, 14.663385658242417 ], [ -91.150591358649564, 14.663616725813785 ], [ -91.150464840713738, 14.663759187481778 ], [ -91.150417699574135, 14.663914707147645 ], [ -91.150404797037709, 14.664069369598188 ], [ -91.150460553679693, 14.664269765337053 ], [ -91.150629165979751, 14.664503819628814 ], [ -91.150991012565029, 14.664872712643758 ], [ -91.151860392390063, 14.665811608118482 ], [ -91.152154322198768, 14.666046658153608 ], [ -91.152382041466623, 14.666082358957276 ], [ -91.152438992086303, 14.666071515004964 ], [ -91.152553937761539, 14.665994481358393 ], [ -91.152680455948541, 14.665852018570551 ], [ -91.152830538130218, 14.665597905298101 ], [ -91.153014290513752, 14.66541071023577 ], [ -91.153106123964037, 14.665322195828979 ], [ -91.1532780099338, 14.665235447184427 ], [ -91.153585873486293, 14.665192706384003 ], [ -91.153893358257193, 14.665195149125696 ], [ -91.154144072594121, 14.665186973496679 ], [ -91.154337940720396, 14.665177216472429 ], [ -91.154452979989784, 14.665088885753667 ], [ -91.154487093033083, 14.665033802589639 ], [ -91.154581824629545, 14.664668540219516 ], [ -91.154677461393959, 14.664125926003781 ], [ -91.154796092633759, 14.663539436903802 ], [ -91.154923828415519, 14.663251254139279 ], [ -91.155038560584828, 14.663130159965563 ], [ -91.15527955510089, 14.662966010507622 ], [ -91.15618420629049, 14.662395924209264 ], [ -91.157410251390687, 14.661551610938323 ], [ -91.158085980820758, 14.661158190265532 ], [ -91.158383552036653, 14.661027245994502 ], [ -91.158714120275818, 14.660974510403845 ], [ -91.158998974179809, 14.660976766492691 ], [ -91.159249042429551, 14.661045397767914 ], [ -91.159395961719341, 14.661168566298144 ], [ -91.159428709068038, 14.661346184992391 ], [ -91.159427321845087, 14.661512236634 ], [ -91.159355985482478, 14.661856223471078 ], [ -91.159203600943229, 14.662387094893804 ], [ -91.159143225023897, 14.662807986441472 ], [ -91.159153525512806, 14.662963963506735 ], [ -91.159197947025859, 14.663063726931027 ], [ -91.159288106543372, 14.663175149346461 ], [ -91.159390142996401, 14.663253905140817 ], [ -91.159617682169937, 14.663311061114364 ], [ -91.159811180940764, 14.663345353818842 ], [ -91.160300550566589, 14.663383118090305 ], [ -91.1605279015631, 14.663462865284599 ], [ -91.160618250600251, 14.663551695206351 ], [ -91.160696619271931, 14.663685617422692 ], [ -91.160739678828662, 14.664018083576853 ], [ -91.160725944000689, 14.664273282160458 ], [ -91.160666862261735, 14.664539418640011 ], [ -91.160562504176383, 14.664738545733568 ], [ -91.16021653410327, 14.665245291949748 ], [ -91.159502406185283, 14.666205511696436 ], [ -91.159455091107546, 14.666382496296936 ], [ -91.159453797808638, 14.666537251843769 ], [ -91.159498705752512, 14.666648315901606 ], [ -91.159589140431706, 14.66672697988097 ], [ -91.159748497285392, 14.666750835455098 ], [ -91.159987808828205, 14.666718840151219 ], [ -91.16023917659119, 14.666632715511964 ], [ -91.161819110520824, 14.66572453037208 ], [ -91.162151010526571, 14.665582556482601 ], [ -91.16260708932397, 14.665508214956107 ], [ -91.162869134886677, 14.665532880189248 ], [ -91.163085168592715, 14.665578645358606 ], [ -91.163278010808398, 14.665692007815352 ], [ -91.163322802060151, 14.665747716112248 ], [ -91.16334416236387, 14.665969302112263 ], [ -91.163341666071233, 14.666268647447948 ], [ -91.163361428836225, 14.666612226200659 ], [ -91.163403629734958, 14.666978575879552 ], [ -91.163470516405468, 14.667167760983578 ], [ -91.163674323027536, 14.667358028135398 ], [ -91.163923844701429, 14.667493302063917 ], [ -91.164071138102543, 14.667572413766718 ], [ -91.164264359198796, 14.667640591428752 ], [ -91.164456469418113, 14.667842062402837 ], [ -91.164545155338743, 14.668130831351723 ], [ -91.164564919806566, 14.668474410186974 ], [ -91.164540071036342, 14.668740818363645 ], [ -91.164327429397687, 14.669610121605192 ], [ -91.164220138687597, 14.670230597697648 ], [ -91.164207150657219, 14.670396557972536 ], [ -91.164227649008168, 14.670652027533047 ], [ -91.164306696384244, 14.670774657534224 ], [ -91.164408346268587, 14.670830815002889 ], [ -91.164533391688408, 14.67086456367722 ], [ -91.16473868069933, 14.670877482285611 ], [ -91.164989685009942, 14.670835407487708 ], [ -91.165240322134466, 14.670837387032957 ], [ -91.165387712329306, 14.670905202134568 ], [ -91.165420841608338, 14.671037636336722 ], [ -91.165396821528262, 14.67120463932126 ], [ -91.165278860792043, 14.67171319347676 ], [ -91.165207066789606, 14.672112533178799 ], [ -91.165113210215353, 14.672443917754592 ], [ -91.165052900379109, 14.672787993728996 ], [ -91.16500403970322, 14.673220275126841 ], [ -91.165000715728624, 14.673619025827641 ], [ -91.165008132702027, 14.674051751760956 ], [ -91.165050549223764, 14.67446216059175 ], [ -91.165127445448633, 14.674773429995032 ], [ -91.165262053694562, 14.675052394578767 ], [ -91.165476063606746, 14.67534215341751 ], [ -91.165736549333133, 14.675555460931683 ], [ -91.165895367678658, 14.675644830220969 ], [ -91.166099892906971, 14.675680335681767 ], [ -91.166328369368074, 14.67562678532609 ], [ -91.166466310889874, 14.675505868874506 ], [ -91.166501746657815, 14.675361549525519 ], [ -91.166572950540711, 14.674963334406177 ], [ -91.166530377425019, 14.674641039397008 ], [ -91.166467457290111, 14.673975160890159 ], [ -91.166380254026009, 14.673507914462204 ], [ -91.166360393120982, 14.673175631604906 ], [ -91.166363535758478, 14.672798343103919 ], [ -91.16643366279547, 14.672598943179436 ], [ -91.166547933849145, 14.672533193958236 ], [ -91.166604697754352, 14.672544938779806 ], [ -91.166786508529498, 14.672590431197824 ], [ -91.166900155700915, 14.672669276022337 ], [ -91.16702390471049, 14.672858909243633 ], [ -91.167057401968563, 14.672947288676621 ], [ -91.167169632191218, 14.673126663825693 ], [ -91.167349873100221, 14.673360800219006 ], [ -91.167633456212002, 14.673517803749029 ], [ -91.167872518516674, 14.673586340672777 ], [ -91.168111273427002, 14.673622114178729 ], [ -91.168384729436028, 14.673601676998693 ], [ -91.168795109551041, 14.673582318978299 ], [ -91.169148255544542, 14.673607696392979 ], [ -91.169329880053809, 14.673675779139529 ], [ -91.169522742100099, 14.673788007920656 ], [ -91.169601579703084, 14.673866577265304 ], [ -91.169747252533796, 14.674211148584705 ], [ -91.169858198903313, 14.674545279088807 ], [ -91.169982233263624, 14.674701022868376 ], [ -91.170141137632228, 14.674780222910401 ], [ -91.170289086230937, 14.674781388451285 ], [ -91.17044909873222, 14.674727294474859 ], [ -91.170666617609456, 14.674595705194259 ], [ -91.170885364124629, 14.674386177225047 ], [ -91.171183288137129, 14.674144511611752 ], [ -91.171572965770267, 14.673893400668673 ], [ -91.172236201961283, 14.673609421498773 ], [ -91.172898967835778, 14.673381920749669 ], [ -91.173446610815347, 14.673252924970891 ], [ -91.173891212624156, 14.673234956593294 ], [ -91.174222472414812, 14.673170909121147 ], [ -91.174519473484395, 14.673039940511224 ], [ -91.174714548626142, 14.672885576895469 ], [ -91.174967212250166, 14.672643550080831 ], [ -91.175414481311577, 14.672303639192817 ], [ -91.175814351300644, 14.672152012627592 ], [ -91.176191144401074, 14.672054429070291 ], [ -91.176613032755952, 14.672046444043202 ], [ -91.177171171258308, 14.672050824266698 ], [ -91.178071703763067, 14.672047721558499 ], [ -91.178822989469353, 14.672130431303755 ], [ -91.179118239881689, 14.672210694221901 ], [ -91.179527058788125, 14.672379962469913 ], [ -91.179868331498824, 14.672437991395169 ], [ -91.180221572373341, 14.672452055751702 ], [ -91.180597440684252, 14.672466296797772 ], [ -91.180995872611845, 14.672558662442984 ], [ -91.181256445625721, 14.672692876300916 ], [ -91.181597169058477, 14.672817550131251 ], [ -91.181790308469274, 14.67289701049708 ], [ -91.182074994907381, 14.672921832412829 ], [ -91.182326000562597, 14.672879738765115 ], [ -91.182588982972803, 14.672792550957812 ], [ -91.182908450788545, 14.672750992271485 ], [ -91.183250275574082, 14.672742368990621 ], [ -91.183535148612648, 14.67274459676894 ], [ -91.183865006235806, 14.67277993691831 ], [ -91.184126702263853, 14.672848634503298 ], [ -91.184376058666231, 14.673006480911766 ], [ -91.184693524006704, 14.673207787604239 ], [ -91.185056328737872, 14.673399280963091 ], [ -91.185386758715808, 14.673435753240348 ], [ -91.185648425308145, 14.673437797231198 ], [ -91.185876803859188, 14.673395522994101 ], [ -91.186139599832771, 14.673330923452356 ], [ -91.186447929836604, 14.673232788352092 ], [ -91.186894273381526, 14.673003556149398 ], [ -91.18707727210807, 14.672905571541932 ], [ -91.187603472554954, 14.672631773353451 ], [ -91.187981992986451, 14.672324060842033 ], [ -91.188487106650697, 14.671862566876641 ], [ -91.188946879937589, 14.671410885352712 ], [ -91.189290524383097, 14.671180847213995 ], [ -91.189484576332617, 14.671149598480801 ], [ -91.189780875577853, 14.671173371600666 ], [ -91.190030875789361, 14.671253268329153 ], [ -91.190234864935121, 14.671354270564139 ], [ -91.190449993824785, 14.671511844106622 ], [ -91.191546326652514, 14.672607147241518 ], [ -91.191908590314739, 14.672865278191372 ], [ -91.192067688693228, 14.672921871539657 ], [ -91.192307401077102, 14.672912440140951 ], [ -91.192467770315133, 14.672814274913662 ], [ -91.192652139474063, 14.672549101420811 ], [ -91.192893635821122, 14.67225161097258 ], [ -91.193123468166675, 14.672031978455092 ], [ -91.193237639815834, 14.671977511376904 ], [ -91.193523153011256, 14.671901782776326 ], [ -91.193785399152986, 14.67190382190784 ], [ -91.194161094010965, 14.671939503842149 ], [ -91.194684543262127, 14.672000057082771 ], [ -91.195266265316548, 14.671959389199911 ], [ -91.19596242684257, 14.671831492206451 ], [ -91.1966473448432, 14.67165944756187 ], [ -91.197149628880894, 14.671541338723758 ], [ -91.197972737088975, 14.671215593692132 ], [ -91.198465597286003, 14.67083079990509 ], [ -91.198569834275872, 14.670642948536772 ], [ -91.198605969285595, 14.67041051083242 ], [ -91.198609693745865, 14.669955271209021 ], [ -91.198522051648041, 14.669533214129546 ], [ -91.198382902853965, 14.668456662225763 ], [ -91.198330582717176, 14.667901574567429 ], [ -91.198176023676083, 14.667290338938558 ], [ -91.198033486871523, 14.666557189053146 ], [ -91.198002703799389, 14.666135572804652 ], [ -91.198004884954429, 14.665868980859306 ], [ -91.198052899921109, 14.665602744292194 ], [ -91.198111383580923, 14.665404370784197 ], [ -91.198261601319118, 14.66512762952674 ], [ -91.198435201135851, 14.664829605098078 ], [ -91.198654321823298, 14.664499172027254 ], [ -91.198781006226866, 14.66433295839642 ], [ -91.198998768185589, 14.664168580141713 ], [ -91.199170371425581, 14.664114554546218 ], [ -91.199398655985888, 14.664082432228938 ], [ -91.19969435899705, 14.66410731688471 ], [ -91.199944448683539, 14.664175906199755 ], [ -91.200149469701074, 14.664221552257438 ], [ -91.200341578101799, 14.664356344456476 ], [ -91.200578559525027, 14.664680143855328 ], [ -91.200815053713654, 14.664992642304284 ], [ -91.201154516395803, 14.665272046581642 ], [ -91.201483676079107, 14.665463254076267 ], [ -91.201858901706174, 14.665555403932068 ], [ -91.202155288933156, 14.665567864272743 ], [ -91.202690119680184, 14.66558329810859 ], [ -91.203487494455203, 14.665634651448281 ], [ -91.203862730804474, 14.665725668563352 ], [ -91.204271562544434, 14.66589489413337 ], [ -91.205055080398637, 14.666222912251918 ], [ -91.205373635957486, 14.666292024944983 ], [ -91.205498954745551, 14.666292992681676 ], [ -91.205738982644831, 14.666172838141192 ], [ -91.205900243499457, 14.665963958426991 ], [ -91.205993595054835, 14.66568677217122 ], [ -91.206042860964303, 14.665265773268876 ], [ -91.206035231983336, 14.664777682683731 ], [ -91.205926035024518, 14.664222155611586 ], [ -91.205737676307749, 14.663555306544852 ], [ -91.205675454242282, 14.662788887595488 ], [ -91.205712122420138, 14.66248979934811 ], [ -91.205815714030962, 14.662379888063658 ], [ -91.205998071206523, 14.662358701486525 ], [ -91.206146014408901, 14.662359843249652 ], [ -91.206385348501982, 14.662395581232376 ], [ -91.206749603110239, 14.662409688661397 ], [ -91.20706869651346, 14.662412150147437 ], [ -91.207285283736439, 14.662391226573279 ], [ -91.207696006115569, 14.662327741309465 ], [ -91.207821414703432, 14.662317411205457 ], [ -91.207958334797908, 14.662318466822692 ], [ -91.208117881532004, 14.662319696783541 ], [ -91.208334193076126, 14.662332661219637 ], [ -91.208596071734902, 14.66237873806762 ], [ -91.208675187660276, 14.662424535964938 ], [ -91.208743105868379, 14.662491711936896 ], [ -91.20885582741144, 14.662614588670237 ], [ -91.209013758129046, 14.662814633633429 ], [ -91.209251018274074, 14.663105666093228 ], [ -91.209566292012823, 14.663506880714152 ], [ -91.20966799121075, 14.663629672239619 ], [ -91.209792583543305, 14.663719878611284 ], [ -91.209962927150045, 14.663820604632201 ], [ -91.21014446863667, 14.663899952375409 ], [ -91.210360515920215, 14.663945674520278 ], [ -91.21075900441258, 14.663960039546559 ], [ -91.211431702678652, 14.663931325935433 ], [ -91.211978890565561, 14.663925368685314 ], [ -91.212286750271986, 14.663882548555238 ], [ -91.212526231707713, 14.663829034791473 ], [ -91.21291527349193, 14.663649013882395 ], [ -91.214208616249167, 14.662926903945843 ], [ -91.214563287768144, 14.662763561506093 ], [ -91.214905732927249, 14.662676944717338 ], [ -91.215156724641361, 14.662634813505671 ], [ -91.215373312216457, 14.662613882328992 ], [ -91.215578113315672, 14.662615454631544 ], [ -91.215851680595932, 14.662651445841062 ], [ -91.216146937862348, 14.662731661833343 ], [ -91.216397216194139, 14.662777641073708 ], [ -91.216533689108545, 14.66283404396966 ], [ -91.21673799171198, 14.662968917104759 ], [ -91.217055346390978, 14.663114824677422 ], [ -91.217554999779082, 14.663318615370155 ], [ -91.220612277591499, 14.664306813484222 ], [ -91.220953556107617, 14.664364781875523 ], [ -91.221090478458365, 14.664365829902854 ], [ -91.221204275738756, 14.664356533464325 ], [ -91.221261315766583, 14.664334375781007 ], [ -91.221318802739106, 14.66425686564847 ], [ -91.221342812588816, 14.664157634793504 ], [ -91.221332011686982, 14.664058137539655 ], [ -91.22126436242155, 14.663957075524321 ], [ -91.221174350803977, 14.663823080723832 ], [ -91.221049835131225, 14.663722713152893 ], [ -91.220641264546103, 14.663519626849263 ], [ -91.219982679258365, 14.663237805060447 ], [ -91.21903977777302, 14.662886020693838 ], [ -91.2188356884336, 14.662796339482824 ], [ -91.218722289151088, 14.662684758909467 ], [ -91.218621256321455, 14.662550678864068 ], [ -91.218565385801995, 14.66242824200649 ], [ -91.218543612974074, 14.662250710673476 ], [ -91.21855620294339, 14.662128798479282 ], [ -91.218602351554495, 14.662018440560317 ], [ -91.218660418855862, 14.661940935554316 ], [ -91.218809257821832, 14.661831364490322 ], [ -91.219049010127165, 14.661743954352586 ], [ -91.21936881684401, 14.66165828688791 ], [ -91.219619989662618, 14.661593557809347 ], [ -91.219883304293234, 14.661462268485712 ], [ -91.220135462369271, 14.661275537572633 ], [ -91.220227443487232, 14.661165530132102 ], [ -91.220308186084537, 14.66101024816413 ], [ -91.220332779809027, 14.660838720359752 ], [ -91.220242764990402, 14.657831869811808 ], [ -91.220359565501667, 14.657522093193528 ], [ -91.220486576899305, 14.657312938941594 ], [ -91.220716152236591, 14.657048083856118 ], [ -91.220958001544773, 14.656772025269092 ], [ -91.221427710060695, 14.656443483117441 ], [ -91.22188559225367, 14.656214264115512 ], [ -91.222147781262137, 14.656149615781947 ], [ -91.222523723805651, 14.656152489718327 ], [ -91.222967769923315, 14.656199942301225 ], [ -91.223298105202829, 14.656246525272609 ], [ -91.223888654109402, 14.656473590161706 ], [ -91.22462643550945, 14.656789895514541 ], [ -91.22493356585403, 14.656836299113468 ], [ -91.225093201074046, 14.656826220536018 ], [ -91.225173527089837, 14.656794071949099 ], [ -91.225288402940222, 14.656650345328602 ], [ -91.225369802166341, 14.656484898582599 ], [ -91.225406178133682, 14.656218563638273 ], [ -91.225396184819445, 14.656018527957587 ], [ -91.225366239311427, 14.655486204024216 ], [ -91.225279802311164, 14.654908260408376 ], [ -91.224946841361756, 14.653818934228312 ], [ -91.224736602987335, 14.653052513088358 ], [ -91.22478444722141, 14.652730909729213 ], [ -91.224877049764544, 14.652542954216106 ], [ -91.225027177843771, 14.652344140501212 ], [ -91.225856435404523, 14.651241087296656 ], [ -91.226051405573557, 14.651021150137279 ], [ -91.226211391013535, 14.6509670141222 ], [ -91.226359999223234, 14.650956850132015 ], [ -91.226746956549519, 14.650959800297029 ], [ -91.227396629353166, 14.650976049116558 ], [ -91.227954730115357, 14.650980301391206 ], [ -91.228467579623072, 14.650984207707678 ], [ -91.228809912136981, 14.650908864147567 ], [ -91.229141703048441, 14.65070126295328 ], [ -91.230654878457003, 14.649536741474757 ], [ -91.230987961784635, 14.649239899346197 ], [ -91.231023440766123, 14.649084268067046 ], [ -91.230990635109066, 14.648906652912638 ], [ -91.2309008850048, 14.648739901921971 ], [ -91.230686721845046, 14.648460362713822 ], [ -91.230370218918722, 14.648137115688797 ], [ -91.229657483057338, 14.64752164604168 ], [ -91.22801362840444, 14.646466403837529 ], [ -91.227696959881257, 14.646164617177917 ], [ -91.22760739483914, 14.645975272339649 ], [ -91.227575572522028, 14.645675655125192 ], [ -91.227637907924318, 14.644993781244038 ], [ -91.227762440020001, 14.643719279755862 ], [ -91.227838118352992, 14.642820601601157 ], [ -91.227966628261115, 14.642422790095191 ], [ -91.228047448018089, 14.642256207339139 ], [ -91.228196440938447, 14.642125164760179 ], [ -91.228242452106073, 14.642102920687885 ], [ -91.228402430454466, 14.642048782339513 ], [ -91.228653043639625, 14.642050689830777 ], [ -91.229040565951038, 14.642053638846827 ], [ -91.231022757777467, 14.642080010275246 ], [ -91.231637689303966, 14.642084683301626 ], [ -91.231865949716592, 14.642052525931502 ], [ -91.232071267630616, 14.641987432206934 ], [ -91.232300233888736, 14.641867161659512 ], [ -91.232598269839798, 14.641670594445488 ], [ -91.233296413430836, 14.641209320580748 ], [ -91.233755491368356, 14.640825310744344 ], [ -91.233961965046291, 14.640615619755396 ], [ -91.234054862780596, 14.640461552904975 ], [ -91.234878641448333, 14.638581167619773 ], [ -91.235250668718692, 14.637619206365605 ], [ -91.235357693313674, 14.637076621722334 ], [ -91.235372041235564, 14.636733295214029 ], [ -91.235327639482747, 14.636554462715825 ], [ -91.235215265523792, 14.636387541937003 ], [ -91.235158947633153, 14.636320461497933 ], [ -91.234931668989077, 14.636230620352427 ], [ -91.234590517416876, 14.636161380293384 ], [ -91.23427163793545, 14.636136367772048 ], [ -91.233941147354656, 14.636112396468937 ], [ -91.233714015751673, 14.636076781901961 ], [ -91.233509009752439, 14.636031167506646 ], [ -91.233395579659813, 14.635996415272366 ], [ -91.233271071869765, 14.635896055156465 ], [ -91.233157676674395, 14.635784482110791 ], [ -91.233034154799114, 14.6355609898794 ], [ -91.232832126202013, 14.635216021737916 ], [ -91.232686062196919, 14.634982190815846 ], [ -91.23249435107671, 14.63472541893867 ], [ -91.232268233305263, 14.634490980140788 ], [ -91.231973582343201, 14.634266188297209 ], [ -91.231624254643251, 14.633842150286215 ], [ -91.231534019208567, 14.633664099053849 ], [ -91.231535620935446, 14.633464150867866 ], [ -91.231617358012599, 14.633254643752906 ], [ -91.231732215958047, 14.633110911826584 ], [ -91.231835870896262, 14.632989689158672 ], [ -91.231985035873379, 14.632836050078396 ], [ -91.23222648050303, 14.632605160713153 ], [ -91.232398630577492, 14.632406506980836 ], [ -91.232515216163961, 14.632119313214536 ], [ -91.23259700459937, 14.631830725559364 ], [ -91.232636022811647, 14.631232269926915 ], [ -91.232595078012551, 14.630621910255835 ], [ -91.232533861916366, 14.629789971558424 ], [ -91.232537415267132, 14.629346018413207 ], [ -91.23263071361572, 14.629068815114316 ], [ -91.232792543625649, 14.62878196420148 ], [ -91.232976291633733, 14.628583397606565 ], [ -91.233320178201737, 14.628309224391783 ], [ -91.233732252309238, 14.62806832951564 ], [ -91.234257932412334, 14.627839592180967 ], [ -91.234978164132428, 14.627511782445922 ], [ -91.235675680312397, 14.627195095435761 ], [ -91.236339402605793, 14.626823923594319 ], [ -91.236969528996539, 14.626373414764574 ], [ -91.237462711295692, 14.625999818872915 ], [ -91.237877345484108, 14.625436963837839 ], [ -91.238154366570512, 14.62496231543312 ], [ -91.238304764783322, 14.624652778609532 ], [ -91.238422580866796, 14.624209687874959 ], [ -91.238589443339478, 14.623290224197492 ], [ -91.238873267230659, 14.62196155420075 ], [ -91.239013612928773, 14.621529930309919 ], [ -91.239128981638302, 14.62132067329377 ], [ -91.239278403298428, 14.621133138243991 ], [ -91.239393649513858, 14.621011998650829 ], [ -91.239485341742949, 14.620934740324254 ], [ -91.240057886836126, 14.620573033816651 ], [ -91.240515445860893, 14.620299705948401 ], [ -91.241385823508182, 14.619761747363928 ], [ -91.242187160130129, 14.619224394100861 ], [ -91.243001024677909, 14.61864307273842 ], [ -91.243642575424346, 14.618137271185791 ], [ -91.244090782529284, 14.617652605728479 ], [ -91.244712043979348, 14.616925221115858 ], [ -91.24508072695275, 14.616373300436376 ], [ -91.245358598693656, 14.615787933348786 ], [ -91.245566405405015, 14.615478821988784 ], [ -91.245807854866385, 14.615169963519428 ], [ -91.246049265234745, 14.614939055719629 ], [ -91.246393123562669, 14.61466372905284 ], [ -91.246932296473346, 14.614191038104369 ], [ -91.247632298411261, 14.61355348419667 ], [ -91.248447051692381, 14.612782351868761 ], [ -91.249010152810911, 14.612143764440711 ], [ -91.249402018452685, 14.611592008848953 ], [ -91.249989845451594, 14.610686987419168 ], [ -91.250599466135597, 14.609959495304951 ], [ -91.250966602257961, 14.6096730376794 ], [ -91.25128609222422, 14.609543254879478 ], [ -91.251674267799629, 14.609456916343213 ], [ -91.251981691564964, 14.609459220758261 ], [ -91.252334590765386, 14.609505925126776 ], [ -91.252606828010585, 14.609629976185852 ], [ -91.252856176047189, 14.609787747468557 ], [ -91.253105354903738, 14.609966982179506 ], [ -91.253421757364208, 14.61030149358082 ], [ -91.253804411972382, 14.610914415144817 ], [ -91.254231866598133, 14.611584158345977 ], [ -91.254479211468038, 14.611996103275363 ], [ -91.254590414078919, 14.612385564043986 ], [ -91.254622576827586, 14.612573340572688 ], [ -91.254620383020935, 14.612851238614683 ], [ -91.254547397372249, 14.61349915930548 ], [ -91.25448751902357, 14.613809387737406 ], [ -91.254405946134611, 14.614075394102041 ], [ -91.254301259884272, 14.614329930018007 ], [ -91.254161359754249, 14.614783035207317 ], [ -91.254032381956634, 14.615248649099964 ], [ -91.253960258498793, 14.615713558941932 ], [ -91.253941473785346, 14.616622853257352 ], [ -91.253972101263187, 14.617078365012722 ], [ -91.254050053234693, 14.617344436109422 ], [ -91.254206796310214, 14.617623524374743 ], [ -91.254466533081668, 14.617936146120071 ], [ -91.254829121158309, 14.618226943061924 ], [ -91.25511151756713, 14.618461782293743 ], [ -91.255281237904242, 14.618640420906797 ], [ -91.255438215640723, 14.61896356993212 ], [ -91.255481767257137, 14.61925197794271 ], [ -91.255432784604821, 14.619651536945964 ], [ -91.255339082156922, 14.619984106884187 ], [ -91.255164285466478, 14.620448248422223 ], [ -91.2550368840256, 14.620713911586421 ], [ -91.254989889593332, 14.620934987398815 ], [ -91.254988310516239, 14.621134938325442 ], [ -91.255041660873033, 14.621578193151441 ], [ -91.255117536281006, 14.622034043695855 ], [ -91.255238890302593, 14.622534294338832 ], [ -91.25538380483485, 14.622989532030182 ], [ -91.255596491423489, 14.623457704109597 ], [ -91.255821752660495, 14.62380282927494 ], [ -91.256217291959771, 14.624183120695722 ], [ -91.256579570417912, 14.624441151472574 ], [ -91.256760576257875, 14.624587111687354 ], [ -91.25685109776424, 14.62473126511348 ], [ -91.256906020822171, 14.624975698496545 ], [ -91.256903658571872, 14.62527506025474 ], [ -91.256833977976797, 14.625430442173048 ], [ -91.256661719651149, 14.625572629457073 ], [ -91.25644464218044, 14.625660253978456 ], [ -91.256204860825008, 14.625757875947635 ], [ -91.255884580988223, 14.625911381693658 ], [ -91.255552583151314, 14.62615291837737 ], [ -91.255138693792105, 14.626626566114314 ], [ -91.254724891889566, 14.627088916245702 ], [ -91.254413791744625, 14.627475213249088 ], [ -91.254103708154133, 14.627806160463937 ], [ -91.253621191560697, 14.628300755336655 ], [ -91.252955986458858, 14.62886176273661 ], [ -91.252407167012279, 14.629157024593324 ], [ -91.251801086485855, 14.629430390357285 ], [ -91.251366580722262, 14.629648555994718 ], [ -91.251022881158121, 14.629901294504627 ], [ -91.250827544503196, 14.630099789879932 ], [ -91.250734885049056, 14.630299056213818 ], [ -91.250628958766868, 14.630708352607824 ], [ -91.25050084664359, 14.631062125487288 ], [ -91.250385302850077, 14.631293981853226 ], [ -91.250155031010479, 14.631581462642568 ], [ -91.249477067823534, 14.632285837759934 ], [ -91.249051074462642, 14.632892688926967 ], [ -91.248934947940469, 14.633124539901203 ], [ -91.248841138310809, 14.633468401752312 ], [ -91.248769343164838, 14.633889250632478 ], [ -91.248662315012524, 14.634509796409571 ], [ -91.248524001951253, 14.634686123453108 ], [ -91.248386567123916, 14.634751743617448 ], [ -91.248044532616049, 14.634793229810198 ], [ -91.247600078611768, 14.634801182598043 ], [ -91.247189770430438, 14.634819559123422 ], [ -91.246881693135819, 14.63489519101458 ], [ -91.246538330302769, 14.635103864585789 ], [ -91.246217250120878, 14.635355635047025 ], [ -91.245861754114671, 14.63563086997204 ], [ -91.245357538365866, 14.63600439948714 ], [ -91.245036096317023, 14.636301354354865 ], [ -91.244748260252209, 14.636676513151514 ], [ -91.244459682425614, 14.637217735617334 ], [ -91.244308171422986, 14.637593921564365 ], [ -91.244260370071956, 14.637914403228402 ], [ -91.244281934184727, 14.638047873513237 ], [ -91.244314840052184, 14.638214191383598 ], [ -91.244823073353089, 14.638795313787377 ], [ -91.244968533266345, 14.63910708516498 ], [ -91.24498895685872, 14.639384022050798 ], [ -91.244953579696471, 14.639528360273333 ], [ -91.244804938848844, 14.639616487905593 ], [ -91.244611007431232, 14.639636490340747 ], [ -91.244463076374856, 14.639635374743145 ], [ -91.24389409811009, 14.639542964419038 ], [ -91.242926937243041, 14.639402358540559 ], [ -91.242266089939903, 14.639408666677552 ], [ -91.241912094601616, 14.639494111904625 ], [ -91.241740247960166, 14.639582062188657 ], [ -91.241511076199743, 14.639801757022633 ], [ -91.241062633220366, 14.640309004112387 ], [ -91.240440754503652, 14.641103018595837 ], [ -91.24010712267139, 14.6415444775112 ], [ -91.239922494114566, 14.641852625581077 ], [ -91.239851470754289, 14.642174059583851 ], [ -91.239826367359015, 14.642484543598082 ], [ -91.239835262799701, 14.642751225530263 ], [ -91.239879056104058, 14.643006874161081 ], [ -91.239979743925261, 14.64318500217121 ], [ -91.240216769320526, 14.643508765706729 ], [ -91.240374719393657, 14.643708791333154 ], [ -91.240395308120142, 14.643964264475201 ], [ -91.240371088057273, 14.644164042362359 ], [ -91.24027850236287, 14.644352006045725 ], [ -91.239585591607252, 14.645466320603935 ], [ -91.239066513848456, 14.646316463167144 ], [ -91.238892441759248, 14.64668230546603 ], [ -91.238856003593213, 14.646958811612363 ], [ -91.238818591041053, 14.647357320356166 ], [ -91.238792681861966, 14.647768343089858 ], [ -91.238697972850261, 14.648221774398502 ], [ -91.238477320661758, 14.648753332580387 ], [ -91.238188219176692, 14.649283242330469 ], [ -91.238003842132528, 14.649558627718406 ], [ -91.237854611648757, 14.649646745380108 ], [ -91.237626842312267, 14.649689079099094 ], [ -91.237364616313172, 14.649687092386522 ], [ -91.236270237340875, 14.649779342945299 ], [ -91.235950542612187, 14.649853739900189 ], [ -91.235790559614259, 14.649907882980326 ], [ -91.235664271885057, 14.65002893499565 ], [ -91.234732993210912, 14.651054433776258 ], [ -91.23445610677237, 14.651506479593966 ], [ -91.234408411408396, 14.651738839772584 ], [ -91.234440858177948, 14.651961640788935 ], [ -91.234529725639732, 14.652239096592638 ], [ -91.235024358175934, 14.653142107334279 ], [ -91.23523472392057, 14.653897226667302 ], [ -91.235594179576537, 14.654510002671104 ], [ -91.235842855074097, 14.65475590869333 ], [ -91.236171764894522, 14.654980958374669 ], [ -91.236421950959183, 14.655038212073325 ], [ -91.236752061890158, 14.655040715227619 ], [ -91.237219180983487, 14.655032959276024 ], [ -91.237641399908753, 14.654980803008513 ], [ -91.238086867998717, 14.654850871338631 ], [ -91.238372701497866, 14.654731026804509 ], [ -91.238979172046768, 14.654346995754963 ], [ -91.23971196784845, 14.653909692398591 ], [ -91.239883294805779, 14.653888394630114 ], [ -91.240065464368413, 14.653889773225789 ], [ -91.240122229656492, 14.653901499999332 ], [ -91.240156017077808, 14.653957112059503 ], [ -91.24017802098561, 14.654035229398701 ], [ -91.240153807568021, 14.654233877299042 ], [ -91.240141140196286, 14.654367088670332 ], [ -91.240094913738972, 14.654488748862564 ], [ -91.239944312230932, 14.654820877175114 ], [ -91.239838971809476, 14.655152218190059 ], [ -91.239802432932763, 14.655441150459577 ], [ -91.239753857630561, 14.655784218250105 ], [ -91.239647319057937, 14.65633810520529 ], [ -91.239563981053294, 14.656747563299774 ], [ -91.239435380659074, 14.657157808340681 ], [ -91.239330480183952, 14.657433795844591 ], [ -91.239157519278749, 14.657731862287392 ], [ -91.23890387174319, 14.658107268190102 ], [ -91.238788479482253, 14.658316522294211 ], [ -91.238544255552455, 14.658891959654317 ], [ -91.237372216483152, 14.661578589685865 ], [ -91.237012235437049, 14.662407333718074 ], [ -91.236929946760853, 14.66268462066831 ], [ -91.236939416805285, 14.662951306370346 ], [ -91.236949429275825, 14.663150212996735 ], [ -91.237038736804152, 14.663373445183083 ], [ -91.237128406091728, 14.663551491300352 ], [ -91.237547541575751, 14.663886807526204 ], [ -91.237955508413691, 14.66416781187676 ], [ -91.238443585033266, 14.664371472082623 ], [ -91.238943275398341, 14.664574089630698 ], [ -91.239409078899499, 14.664733520101748 ], [ -91.239874621394321, 14.664925709643315 ], [ -91.240135358611823, 14.665116347588587 ], [ -91.240248371401464, 14.665205321586377 ], [ -91.240304835305665, 14.665327759021013 ], [ -91.240303418393083, 14.665505114546509 ], [ -91.24028933270715, 14.665815681260076 ], [ -91.240239860415784, 14.666270584328393 ], [ -91.240180257778704, 14.666613568236562 ], [ -91.240155057746904, 14.666935347933238 ], [ -91.240163508785542, 14.667257382457537 ], [ -91.240184947259991, 14.667478970153544 ], [ -91.240341928076731, 14.667802129475243 ], [ -91.24064597472109, 14.668237114966153 ], [ -91.240939221683604, 14.668571473204047 ], [ -91.241131229937167, 14.668795481841938 ], [ -91.241220155543729, 14.669067288132403 ], [ -91.241238752897829, 14.669644716595208 ], [ -91.241224983383958, 14.66991574551691 ], [ -91.241153641217849, 14.670275586586964 ], [ -91.241037079073109, 14.670630566362005 ], [ -91.240909363698094, 14.670928975521742 ], [ -91.240827662009252, 14.671132836419304 ], [ -91.240803301061177, 14.671349558408746 ], [ -91.240801441652678, 14.671582266873893 ], [ -91.240799401681343, 14.671837568388275 ], [ -91.24082026050246, 14.672059151669307 ], [ -91.240864589368286, 14.672248150765601 ], [ -91.240897936972104, 14.672359115951073 ], [ -91.240999568520408, 14.67249319261049 ], [ -91.24113476197229, 14.672638820563556 ], [ -91.241315710813197, 14.672794962353354 ], [ -91.241814748901206, 14.673154602187424 ], [ -91.242369545938331, 14.673580186877636 ], [ -91.243106089885941, 14.674062501566281 ], [ -91.24337809289753, 14.674297281518569 ], [ -91.243694772925878, 14.674532399029424 ], [ -91.244024250952037, 14.674690791795896 ], [ -91.24425130186971, 14.67481451823053 ], [ -91.244432344914372, 14.67495936146099 ], [ -91.24463477335506, 14.67526026794158 ], [ -91.244804072252947, 14.675495400011153 ], [ -91.244972980440338, 14.67570680485624 ], [ -91.245165268769469, 14.675896921524199 ], [ -91.245629426410375, 14.676266458397306 ], [ -91.24626421936, 14.6767039367517 ], [ -91.246695119564734, 14.676951210527578 ], [ -91.247297537004897, 14.677155718874067 ], [ -91.247695357628501, 14.677258136633025 ], [ -91.248013949056713, 14.677327194044276 ], [ -91.248479787175086, 14.677486609873592 ], [ -91.248888683292591, 14.677655762999215 ], [ -91.249239837444307, 14.677935193208066 ], [ -91.249511532513523, 14.678137202714675 ], [ -91.249828445974003, 14.678417503795691 ], [ -91.250133994595402, 14.678740648445851 ], [ -91.250462463956239, 14.678954382092233 ], [ -91.250734960702403, 14.679055850848787 ], [ -91.250974415088123, 14.679080249078321 ], [ -91.251713726609509, 14.679219124154828 ], [ -91.252191625341666, 14.679322137675138 ], [ -91.252816774435715, 14.679515506673473 ], [ -91.253463935082067, 14.679786990828285 ], [ -91.254213150718101, 14.680214013324809 ], [ -91.254995324133432, 14.680729400148673 ], [ -91.255731832993604, 14.681222976799658 ], [ -91.256684297421614, 14.681851481052938 ], [ -91.257329716762527, 14.682344369348458 ], [ -91.25763478262526, 14.682657334521423 ], [ -91.259341498193891, 14.68440088333764 ], [ -91.259556257837531, 14.684613753098082 ], [ -91.259681384451284, 14.684714107455646 ], [ -91.260032153988135, 14.684972055973125 ], [ -91.260383772657889, 14.685196118495726 ], [ -91.26102011492803, 14.685444908417146 ], [ -91.26153045562728, 14.68570405036532 ], [ -91.261984076038559, 14.686018123420647 ], [ -91.26251675479638, 14.686388144365772 ], [ -91.263094257882685, 14.686813856546875 ], [ -91.263694268809047, 14.687328984697343 ], [ -91.263841324322925, 14.68751875000639 ], [ -91.263920034328535, 14.687618755192622 ], [ -91.264032711892824, 14.687752906390068 ], [ -91.264168073694975, 14.687953881395465 ], [ -91.264393492718966, 14.688287708503223 ], [ -91.264629669829816, 14.688655507862981 ], [ -91.264967938353195, 14.689102021878519 ], [ -91.265262436287202, 14.689359543015099 ], [ -91.265647510019505, 14.689684395023473 ], [ -91.2661229363882, 14.690031386544197 ], [ -91.266530999094002, 14.690311219770274 ], [ -91.267053196604394, 14.690614499444212 ], [ -91.267495577364556, 14.690884419882707 ], [ -91.267789500513956, 14.691141934024884 ], [ -91.267959192377262, 14.691331866270231 ], [ -91.268059743916453, 14.691532579686822 ], [ -91.268091888317613, 14.691798307035892 ], [ -91.26808953001742, 14.692097668855101 ], [ -91.268086993672668, 14.692419624010121 ], [ -91.268173815212606, 14.692963673958838 ], [ -91.268183934392951, 14.693152415006594 ], [ -91.268239403669853, 14.693330197227285 ], [ -91.268384713796493, 14.693742504877855 ], [ -91.268473369362297, 14.694053843338907 ], [ -91.268663459216242, 14.69445405803593 ], [ -91.268944788274709, 14.694911440167497 ], [ -91.269556182190215, 14.695459403691029 ], [ -91.269782923651178, 14.695627165910503 ], [ -91.269896311162611, 14.695672071241848 ], [ -91.270020948604468, 14.695762249794795 ], [ -91.270042708044528, 14.695873126035554 ], [ -91.27004200559783, 14.695962369809532 ], [ -91.270041312038202, 14.696050483914782 ], [ -91.269983395493398, 14.696183360625456 ], [ -91.269914051144809, 14.696293557395121 ], [ -91.269844439930708, 14.696437644171194 ], [ -91.269775239919383, 14.696603198931271 ], [ -91.26971630695401, 14.696791424927014 ], [ -91.269715346402094, 14.696913429042759 ], [ -91.269782681098746, 14.697058537286678 ], [ -91.269872913647134, 14.697169924291156 ], [ -91.270043314059592, 14.697270611858706 ], [ -91.270385099895535, 14.697273160755994 ], [ -91.270761380197015, 14.697243204013191 ], [ -91.271195585575086, 14.697079239945495 ], [ -91.271744709838885, 14.696839309274706 ], [ -91.27229479212194, 14.696477372882059 ], [ -91.273097671395405, 14.695773877380422 ], [ -91.274513299475771, 14.694042357561722 ], [ -91.274971075511345, 14.69375767888638 ], [ -91.275279755138257, 14.693615367481984 ], [ -91.275564837806314, 14.693596021614706 ], [ -91.275804145210401, 14.693641859982471 ], [ -91.275974311552005, 14.693698481706269 ], [ -91.276303588379477, 14.693889594570267 ], [ -91.276450770060336, 14.693991234717213 ], [ -91.27658684694272, 14.694102959931632 ], [ -91.276733949200434, 14.694214766976499 ], [ -91.276903306250148, 14.694448750947224 ], [ -91.27699249689347, 14.694693436812647 ], [ -91.277080465718797, 14.695094017440677 ], [ -91.277247074125484, 14.695604766677953 ], [ -91.277427626207199, 14.695817368518442 ], [ -91.277678019893145, 14.695929942111942 ], [ -91.278224555526862, 14.695945296756017 ], [ -91.278715591552768, 14.69585969154244 ], [ -91.279172500376518, 14.695685712436431 ], [ -91.2795041266819, 14.695577457823155 ], [ -91.279801112749922, 14.69544635104331 ], [ -91.280190472105417, 14.695227808992286 ], [ -91.280373722694279, 14.695095858173895 ], [ -91.280799225877402, 14.694633559043552 ], [ -91.281062759887163, 14.694401655647363 ], [ -91.281200482677392, 14.694303258914148 ], [ -91.281417447147447, 14.694238211581695 ], [ -91.281622776899809, 14.694251029950967 ], [ -91.281758797629649, 14.694296097297284 ], [ -91.281827093742081, 14.694319197929147 ], [ -91.282029936248108, 14.69457602151933 ], [ -91.282211081760337, 14.69478749468478 ], [ -91.282459422929634, 14.695088714777071 ], [ -91.282934341171426, 14.69558027862608 ], [ -91.284181081289134, 14.696443588281115 ], [ -91.285945600734962, 14.698109446896748 ], [ -91.286157464167459, 14.698326793312754 ] ], [ [ -91.214960710127116, 14.664341426742894 ], [ -91.214117040710235, 14.664346242687696 ], [ -91.213479334453638, 14.664352638817618 ], [ -91.213137436111609, 14.664371474947476 ], [ -91.212772321529158, 14.664391261749314 ], [ -91.212316158465484, 14.664477000352663 ], [ -91.211768244639245, 14.66457219945449 ], [ -91.211287800682257, 14.664789924719139 ], [ -91.210864609969093, 14.665030683752276 ], [ -91.209982873561557, 14.665578579487454 ], [ -91.209582176863705, 14.66576415357585 ], [ -91.20923936740337, 14.66589481743685 ], [ -91.208931146466213, 14.665981688849477 ], [ -91.2085540230606, 14.666122254495448 ], [ -91.208405084727787, 14.666243114379455 ], [ -91.208301666825804, 14.666331563692486 ], [ -91.208254573545176, 14.666485970063224 ], [ -91.208275970374402, 14.666708686738064 ], [ -91.208319515231679, 14.666919147431216 ], [ -91.208454903617451, 14.667108851838368 ], [ -91.208635546518977, 14.667298905055517 ], [ -91.208896980891211, 14.667400334263723 ], [ -91.20907906668667, 14.667413034722786 ], [ -91.209409099389944, 14.667426875113172 ], [ -91.20963720348432, 14.667417335640838 ], [ -91.210071012280167, 14.667298669442475 ], [ -91.21070013469857, 14.666992845579083 ], [ -91.211067143630132, 14.666740357752898 ], [ -91.211319397191886, 14.666543471299848 ], [ -91.211697336447045, 14.666302363502872 ], [ -91.212303735371222, 14.66600765693245 ], [ -91.212702778113012, 14.665954240897165 ], [ -91.214288110870598, 14.665789063827305 ], [ -91.214846785331957, 14.665726703169064 ], [ -91.21557678695082, 14.665644192231818 ], [ -91.215907898237674, 14.665524725848339 ], [ -91.216216921922367, 14.665338436624509 ], [ -91.216366701349557, 14.665184816108809 ], [ -91.216460305037529, 14.664874864587143 ], [ -91.216472764476933, 14.664697595941327 ], [ -91.21644010195277, 14.664575336754519 ], [ -91.216292573320757, 14.664451066336831 ], [ -91.216065674104783, 14.664383801779316 ], [ -91.215621532390827, 14.664346501088952 ], [ -91.214960710127116, 14.664341426742894 ] ], [ [ -91.226227455160426, 14.657478812919383 ], [ -91.225930953714141, 14.657553371447714 ], [ -91.225633326239077, 14.657695703835866 ], [ -91.225403448201931, 14.657926670586289 ], [ -91.225345254910764, 14.658092294394894 ], [ -91.225273757009774, 14.658469073134428 ], [ -91.225259422315318, 14.658880179584164 ], [ -91.225302091545302, 14.659201344039952 ], [ -91.225423832420788, 14.659646250872809 ], [ -91.225648536614827, 14.660058052119954 ], [ -91.225896486740595, 14.660393210063505 ], [ -91.226088299270955, 14.660638692032435 ], [ -91.226291935736427, 14.660784849240631 ], [ -91.226462377146319, 14.660874267331378 ], [ -91.226666905110164, 14.660909719039394 ], [ -91.226792222296481, 14.660910674954266 ], [ -91.226917721304488, 14.660889037896062 ], [ -91.227009699167823, 14.660779027368459 ], [ -91.227067945174824, 14.660678926976386 ], [ -91.22708030460781, 14.660512953168727 ], [ -91.227082086143596, 14.660291542664627 ], [ -91.227062404448404, 14.659925364984954 ], [ -91.227048612332794, 14.65882717699983 ], [ -91.227008495890516, 14.658116280425869 ], [ -91.22698774166939, 14.657883400893704 ], [ -91.226943690033266, 14.657661640855984 ], [ -91.226785217551608, 14.657527126019 ], [ -91.226558066272119, 14.657491502183271 ], [ -91.226227455160426, 14.657478812919383 ] ], [ [ -91.22702749663793, 14.654383846676742 ], [ -91.226890398314012, 14.65440539575847 ], [ -91.226764548672563, 14.654471089413931 ], [ -91.22660287027648, 14.654735339623738 ], [ -91.226589304066536, 14.654979254606978 ], [ -91.226609920113546, 14.655301380582022 ], [ -91.22664026100918, 14.655712828193115 ], [ -91.226705511475501, 14.65611211515076 ], [ -91.226750008078227, 14.656278522564607 ], [ -91.226828417596963, 14.65641242684371 ], [ -91.226998583476075, 14.656535733590815 ], [ -91.22721471085336, 14.656571272858725 ], [ -91.227453655391699, 14.656583261843679 ], [ -91.227647429176244, 14.65658473886127 ], [ -91.227829681508368, 14.656575960471276 ], [ -91.228001283153802, 14.656520782435322 ], [ -91.228104589209906, 14.656444748983477 ], [ -91.228230793892024, 14.656334998479997 ], [ -91.228345940058929, 14.656157380693912 ], [ -91.228427781794309, 14.655936579904797 ], [ -91.228487134238037, 14.655626360187521 ], [ -91.228499845957359, 14.655416329859548 ], [ -91.22846749598699, 14.655182232224185 ], [ -91.228377927498599, 14.654992887337761 ], [ -91.228242652941077, 14.654859680013132 ], [ -91.228072487441636, 14.654736374227003 ], [ -91.22782284077509, 14.654612462680067 ], [ -91.227607069353823, 14.654532867969859 ], [ -91.227482291669318, 14.654465263771476 ], [ -91.227334706327824, 14.654420079976795 ], [ -91.227163651383421, 14.654407478931191 ], [ -91.22702749663793, 14.654383846676742 ] ] ] ] } }
]
}
